{"fetched_at":"2026-03-29T02:12:04Z","count":15717,"tles":[{"name":"STARLINK-5564","line1":"1 56134U 23046AU  26087.58074391  .00000481  00000+0  27616-4 0  9992","line2":"2 56134  43.0022  39.9231 0000566 280.8374  79.2413 15.26742367165098","category":"Starlink"}]}